#cP2021  8 25  0  0  0.00000000      96 ORBIT IGb14 HLM  IGS
## 2172 259200.00000000   900.00000000 59451 0.0000000000000
+   31   G01G02G03G04G05G06G07G08G09G10G12G13G14G15G16G17G18
+        G19G20G21G22G23G24G25G26G27G28G29G30G31G32  0  0  0
+          0  0  0  0  0  0  0  0  0  0  0  0  0  0  0  0  0
+          0  0  0  0  0  0  0  0  0  0  0  0  0  0  0  0  0
+          0  0  0  0  0  0  0  0  0  0  0  0  0  0  0  0  0
++         2  2  2  2  1  1  2  2  2  1  2  1  2  2  2  2  2
++         2  1  2  2  2  2  1  1  3  2  2  1  1  1  0  0  0
++         0  0  0  0  0  0  0  0  0  0  0  0  0  0  0  0  0
++         0  0  0  0  0  0  0  0  0  0  0  0  0  0  0  0  0
++         0  0  0  0  0  0  0  0  0  0  0  0  0  0  0  0  0
%c G  cc GPS ccc cccc cccc cccc cccc ccccc ccccc ccccc ccccc
%c cc cc ccc ccc cccc cccc cccc cccc ccccc ccccc ccccc ccccc
%f  1.2500000  1.025000000  0.00000000000  0.000000000000000
%f  0.0000000  0.000000000  0.00000000000  0.000000000000000
%i    0    0    0    0      0      0      0      0         0
%i    0    0    0    0      0      0      0      0         0
/* FINAL ORBIT COMBINATION FROM WEIGHTED AVERAGE OF:        
/* cod emr esa gfz grg jpl mit ngs sio                      
/* REFERENCED TO IGS TIME (IGST) AND TO WEIGHTED MEAN POLE: 
/* PCV:IGS14_2163 OL/AL:FES2004  NONE     Y  ORB:CMB CLK:CMB
*  2021  8 25 12  0  0.00000000
PG01  16458.368906   4063.424172  20264.557044    587.240383  2  3     79       
PG02 -14066.661215 -22266.132185  -2451.869377   -628.457777  3  4  5  69       
PG03  18913.452666  -5591.787373  17638.458720   -266.339557  2  2  3  87       
PG04  26177.196979    224.368121  -4689.985136   -204.148149 10  4  5  44       
PG05 -13768.435607  -6990.571572 -21780.343206    -52.245049  3  5  1  80       
PG06  -5232.834328 -24750.597304   8049.244953     62.133822  5  3  3  81       
PG07  10682.819124 -12169.683278 -20595.699802    232.181924  4  2  2  78       
PG08  25095.966789   6531.158999  -6466.674702    -33.960015  7     4  80       
PG09  20521.807868  -8657.268154 -14554.207313   -359.658186  7  3  5  83       
PG10 -10309.335853  23183.962402   7464.245352   -189.609820  4  3  4  69       
PG12 -19088.424376   4015.565580  17714.797304    -87.876666  5  5  5  69       
PG13 -19790.161185 -13219.607976 -12084.540894    176.182641  7  2  5 115       
PG14  11114.142581 -22847.746200   7647.393632     15.953165  6  2  2  77       
PG15 -25693.572988  -4303.361394  -6417.631461   -125.883013  7  2  2  82       
PG16   8847.445217  12558.373092 -21868.288849   -379.505228  6  5  5  88       
PG17   7814.997223 -13552.982263  21895.912020    494.699996  3  4  4  90       
PG18  -8983.629245  14538.667098 -20321.344549    329.421491  2  5  4  98       
PG19  -2476.604696 -15172.552394  21404.966974     44.209997  4  3  3  86       
PG20  -6070.325152 -18035.138004 -18661.015376    519.474092  4  3  2  67       
PG21  18909.399150  11003.984609  16114.705878    139.162539  5  4  3  81       
PG22  16559.288466   1953.311516  20815.002684   -529.617980  3  4  2  78       
PG23 -16965.963810  19992.869270  -4018.324556     66.184360  7  3  3  78       
PG24 -18661.927457  -8000.667153  17067.083207    218.126494  6  3  4  72       
PG25 -19354.674925  14453.215764  10464.488932    197.111562  4  4  1  88       
PG26    115.877858  21150.016653 -15952.007728    126.675560  5  2  4  81       
PG27  18470.215317  12162.821457 -15155.544477   -183.411954  9 10  8  83       
PG28   6584.007169 -22052.761881  13972.520728    513.488097  5  2  3  74       
PG29 -22580.404418   4946.744927 -13183.001237   -401.601016  7  6  4  47       
PG30   2217.775499 -22019.969538 -14439.910747   -465.955313  5  3  2  86       
PG31   6074.627423  24920.561043   5771.116742   -136.178259  5  3  3  65       
PG32  -3456.103839  15024.889924  21733.532400      5.078232  3  4     62       
*  2021  8 25 12 15  0.00000000
PG01  17376.546246   6155.919126  18975.430028    587.230290  2  3     63       
PG02 -13941.609397 -22557.314727    411.318177   -628.459958  3  3  4  66       
PG03  17835.758519  -3753.980621  19181.358302   -266.351314  2  3  2  61       
PG04  26525.539731    507.762928  -1869.939675   -204.148281 11  4  5  71       
PG05 -12471.202861  -9078.826822 -21776.869165    -52.246227  3  5  2  75       
PG06  -4611.307356 -23870.733209  10680.767451     62.139812  5  2  2  99       
PG07  11830.688375  -9972.518405 -21176.138742    232.188702  4  3  2  74       
PG08  24204.324587   6687.936450  -9129.118833    -33.960806  7     4  60       
PG09  22038.203499  -8369.469947 -12326.998242   -359.658994  7  3  4  83       
PG10 -10888.975872  23622.267294   4687.354446   -189.616851  3  2  4  80       
PG12 -17860.157894   2230.916613  19235.910560    -87.881647  5  5  5  88       
PG13 -18299.065907 -13094.262354 -14367.753661    176.186801  7  2  4 103       
PG14  11752.628783 -23273.121238   4921.567480     15.945630  6  2  1  86       
PG15 -24876.510693  -4634.235550  -9004.312041   -125.881037  7  2  3  76       
PG16   7275.752264  14398.198121 -21259.180850   -379.510782  5  5  4  74       
PG17  10154.881882 -13205.133375  21119.703293    494.705310  4  4  4  63       
PG18 -10053.369206  12418.650425 -21215.148332    329.418166  4  5  3 104       
PG19     15.379630 -14761.648553  21812.760135     44.214705  5  3  3  87       
PG20  -5052.143133 -19809.803161 -17121.581147    519.473695  4  3  1  71       
PG21  19597.716521  12454.984646  14057.066246    139.163880  5  5  3  85       
PG22  15497.655938   4091.868209  21338.133764   -529.609790  4  4  1  79       
PG23 -16838.817700  19343.058181  -6797.061969     66.179847  8  2  3  83       
PG24 -19442.525815  -9728.878104  15264.725055    218.135628  6  2  4  99       
PG25 -18789.600205  13169.414399  12877.162067    197.117338  5  3  1  85       
PG26   -977.309663  22493.717919 -13925.143925    126.679508  5  1  4  86       
PG27  16666.197444  12162.636914 -17110.242013   -183.417006  8  9  8  66       
PG28   7578.116054 -23020.320084  11635.009899    513.481840  6  2  4  80       
PG29 -23902.688653   4603.509825 -10747.747587   -401.606683  7  6  4  60       
PG30   3186.689743 -20495.922791 -16384.628459   -465.958933  5  2  3  76       
PG31   5459.214468  24281.630565   8481.922008   -136.180235  4  3  3  76       
PG32  -5890.588755  14834.454985  21319.427539      5.075578  3  4  1  72       
*  2021  8 25 12 30  0.00000000
PG01  18328.223642   8044.724570  17355.888085    587.220246  3  4  2  67       
PG02 -13655.950383 -22582.110507   3267.460205   -628.462060  4  4  4  78       
PG03  16778.050201  -1726.562032  20390.438298   -266.363057  3  3  1  73       
PG04  26567.876327    758.953517    982.161765   -204.148490 11  4  4  80       
PG05 -11293.439643 -11214.599138 -21403.985047    -52.247359  4  5  2  92       
PG06  -3800.337031 -22776.125596  13128.360461     62.145856  5  1  2  83       
PG07  13105.062107  -7798.998880 -21378.179811    232.195687  5  2  2  70       
PG08  23031.097109   6895.988262 -11637.216863    -33.962265  6     4  48       
PG09  23304.341100  -8157.023099  -9888.647352   -359.659770  7  3  4  89       
PG10 -11283.675250  23813.133851   1828.608640   -189.623860  3  2  3  86       
PG12 -16640.506268    255.593028  20417.807150    -87.886396  5  5  5  70       
PG13 -16562.781578 -13015.197218 -16407.487781    176.191310  6     4  69       
PG14  12197.782453 -23467.535887   2110.770781     15.937966  6  3  2  85       
PG15 -23799.809824  -5032.301185 -11441.137806   -125.878477  6  3  4  80       
PG16   5854.586210  16252.099426 -20289.454731   -379.516305  5  4  4  78       
PG17  12406.551289 -12996.834675  19993.601905    494.710588  5  4  5  79       
PG18 -11272.477341  10288.506478 -21743.855246    329.414845  5  5  3 102       
PG19   2552.395900 -14484.001384  21835.691976     44.219413  5  3  3  76       
PG20  -4194.489814 -21455.727125 -15291.000573    519.473677  4  3     65       
PG21  20229.280700  13671.711160  11772.766725    139.166022  5  5  4  87       
PG22  14525.983775   6312.192473  21499.330795   -529.601155  4  5     87       
PG23 -16596.512133  18417.753458  -9458.431889     66.175330  8  2  3  95       
PG24 -20184.270188 -11231.378927  13199.775108    218.144860  5  2  4  89       
PG25 -18157.892594  11630.221509  15061.889191    197.123128  5  3  1  58       
PG26  -1891.746937  23674.723502 -11656.282580    126.683415  4  1  4  87       
PG27  14660.950291  12261.228429 -18778.429300   -183.422000  7  9  8  59       
PG28   8362.629184 -23821.253283   9104.412510    513.475404  6  1  3  86       
PG29 -24956.921511   4357.381711  -8128.535765   -401.612120  7  5  4  50       
PG30   4322.607118 -18840.122471 -18043.307391   -465.962537  5  2  3  70       
PG31   4670.927112  23408.157253  11042.272946   -136.181929  4  3  3  80       
PG32  -8266.456678  14770.493813  20541.449380      5.072875  2  3  2  78       
EOF
